{"type": "FeatureCollection", "features": [ {"type": "Feature", "properties": {"norad_id": 37714, "name": "FENGYUN 1C DEB", "group": "fengyun-1c-debris", "lat": -56.317143550138674, "lon": 103.8271723687172, "alt_km": 826.1713364093375, "timestamp": "2025-12-04T17:48:40.455394+00:00", "meta": {"OBJECT_NAME": "FENGYUN 1C DEB", "OBJECT_ID": "1999-025EMF", "EPOCH": "2025-12-01T06:14:12.602976", "MEAN_MOTION": 14.32022386, "ECCENTRICITY": 0.0049613, "INCLINATION": 98.8928, "RA_OF_ASC_NODE": 86.6726, "ARG_OF_PERICENTER": 118.0452, "MEAN_ANOMALY": 242.5761, "EPHEMERIS_TYPE": 0, "CLASSIFICATION_TYPE": "U", "NORAD_CAT_ID": 37714, "ELEMENT_SET_NO": 999, "REV_AT_EPOCH": 57345, "BSTAR": 0.0027481, "MEAN_MOTION_DOT": 7.44e-05, "MEAN_MOTION_DDOT": 0}, "tle": {"line1": "1 37714U 99025EMF 25335.25986809  .00007440  00000+0  27481-2 0  9990", "line2": "2 37714  98.8928  86.6726 0049613 118.0452 242.5761 14.32022386573459"}}, "geometry": {"type": "Point", "coordinates": [103.8271723687172, -56.317143550138674]}}, {"type": "Feature", "properties": {"norad_id": 37715, "name": "FENGYUN 1C DEB", "group": "fengyun-1c-debris", "lat": 78.15312281635708, "lon": -62.01407128821645, "alt_km": 850.1734746688217, "timestamp": "2025-12-04T17:48:40.455404+00:00", "meta": {"OBJECT_NAME": "FENGYUN 1C DEB", "OBJECT_ID": "1999-025EMG", "EPOCH": "2025-12-02T07:00:24.435936", "MEAN_MOTION": 13.95388604, "ECCENTRICITY": 0.0114419, "INCLINATION": 98.9565, "RA_OF_ASC_NODE": 344.3533, "ARG_OF_PERICENTER": 140.6501, "MEAN_ANOMALY": 241.0608, "EPHEMERIS_TYPE": 0, "CLASSIFICATION_TYPE": "U", "NORAD_CAT_ID": 37715, "ELEMENT_SET_NO": 999, "REV_AT_EPOCH": 57658, "BSTAR": 0.00049395, "MEAN_MOTION_DOT": 6.65e-06, "MEAN_MOTION_DDOT": 0}, "tle": {"line1": "1 37715U 99025EMG 25336.29194949  .00000665  00000+0  49395-3 0  9993", "line2": "2 37715  98.9565 344.3533 0114419 140.6501 241.0608 13.95388604576588"}}, "geometry": {"type": "Point", "coordinates": [-62.01407128821645, 78.15312281635708]}}, {"type": "Feature", "properties": {"norad_id": 37717, "name": "FENGYUN 1C DEB", "group": "fengyun-1c-debris", "lat": -18.713932444440246, "lon": 110.65015632024516, "alt_km": 580.2239474547787, "timestamp": "2025-12-04T17:48:40.455414+00:00", "meta": {"OBJECT_NAME": "FENGYUN 1C DEB", "OBJECT_ID": "1999-025EMJ", "EPOCH": "2025-11-28T15:20:52.761120", "MEAN_MOTION": 14.92855591, "ECCENTRICITY": 0.00577735, "INCLINATION": 98.7244, "RA_OF_ASC_NODE": 286.8705, "ARG_OF_PERICENTER": 147.0493, "MEAN_ANOMALY": 30.278, "EPHEMERIS_TYPE": 0, "CLASSIFICATION_TYPE": "U", "NORAD_CAT_ID": 37717, "ELEMENT_SET_NO": 999, "REV_AT_EPOCH": 89187, "BSTAR": 0.0023279704, "MEAN_MOTION_DOT": 0.00024912, "MEAN_MOTION_DDOT": 0}, "tle": {"line1": "1 37717U 99025EMJ 25332.63949955  .00024912  00000+0  23280-2 0  9999", "line2": "2 37717  98.7244 286.8705 0057773 147.0493  30.2780 14.92855591891876"}}, "geometry": {"type": "Point", "coordinates": [110.65015632024516, -18.713932444440246]}}, {"type": "Feature", "properties": {"norad_id": 37902, "name": "FENGYUN 1C DEB", "group": "fengyun-1c-debris", "lat": -16.052095777945524, "lon": 17.447608364895032, "alt_km": 1222.1761346133344, "timestamp": "2025-12-04T17:48:40.455424+00:00", "meta": {"OBJECT_NAME": "FENGYUN 1C DEB", "OBJECT_ID": "1999-025ENB", "EPOCH": "2025-12-01T14:15:39.156480", "MEAN_MOTION": 13.52598401, "ECCENTRICITY": 0.03241848, "INCLINATION": 98.684, "RA_OF_ASC_NODE": 197.2045, "ARG_OF_PERICENTER": 335.5889, "MEAN_ANOMALY": 23.0185, "EPHEMERIS_TYPE": 0, "CLASSIFICATION_TYPE": "U", "NORAD_CAT_ID": 37902, "ELEMENT_SET_NO": 999, "REV_AT_EPOCH": 62826, "BSTAR": 0.0025054803, "MEAN_MOTION_DOT": 2.275e-05, "MEAN_MOTION_DDOT": 0}, "tle": {"line1": "1 37902U 99025ENB 25335.59420320  .00002275  00000+0  25055-2 0  9993", "line2": "2 37902  98.6840 197.2045 0324184 335.5889  23.0185 13.52598401628260"}}, "geometry": {"type": "Point", "coordinates": [17.447608364895032, -16.052095777945524]}}, {"type": "Feature", "properties": {"norad_id": 37906, "name": "FENGYUN 1C DEB", "group": "fengyun-1c-debris", "lat": 72.25753299585152, "lon": -128.58156346369677, "alt_km": 884.976928944956, "timestamp": "2025-12-04T17:48:40.455435+00:00", "meta": {"OBJECT_NAME": "FENGYUN 1C DEB", "OBJECT_ID": "1999-025ENF", "EPOCH": "2025-12-01T09:23:46.720608", "MEAN_MOTION": 13.80764682, "ECCENTRICITY": 0.01629895, "INCLINATION": 99.6032, "RA_OF_ASC_NODE": 16.0673, "ARG_OF_PERICENTER": 58.304, "MEAN_ANOMALY": 318.7787, "EPHEMERIS_TYPE": 0, "CLASSIFICATION_TYPE": "U", "NORAD_CAT_ID": 37906, "ELEMENT_SET_NO": 999, "REV_AT_EPOCH": 59299, "BSTAR": 0.00066212459, "MEAN_MOTION_DOT": 7.25e-06, "MEAN_MOTION_DDOT": 0}, "tle": {"line1": "1 37906U 99025ENF 25335.39151297  .00000725  00000+0  66212-3 0  9998", "line2": "2 37906  99.6032  16.0673 0162989  58.3040 318.7787 13.80764682592994"}}, "geometry": {"type": "Point", "coordinates": [-128.58156346369677, 72.25753299585152]}}, {"type": "Feature", "properties": {"norad_id": 37907, "name": "FENGYUN 1C DEB", "group": "fengyun-1c-debris", "lat": -76.01101807313378, "lon": -128.4721715788281, "alt_km": 793.1082185174182, "timestamp": "2025-12-04T17:48:40.455445+00:00", "meta": {"OBJECT_NAME": "FENGYUN 1C DEB", "OBJECT_ID": "1999-025ENG", "EPOCH": "2025-11-30T02:55:58.989792", "MEAN_MOTION": 14.23288046, "ECCENTRICITY": 0.00636474, "INCLINATION": 99.08, "RA_OF_ASC_NODE": 86.699, "ARG_OF_PERICENTER": 220.282, "MEAN_ANOMALY": 139.3633, "EPHEMERIS_TYPE": 0, "CLASSIFICATION_TYPE": "U", "NORAD_CAT_ID": 37907, "ELEMENT_SET_NO": 999, "REV_AT_EPOCH": 83093, "BSTAR": 0.0031898387, "MEAN_MOTION_DOT": 7.336e-05, "MEAN_MOTION_DDOT": 0}, "tle": {"line1": "1 37907U 99025ENG 25334.12221053  .00007336  00000+0  31898-2 0  9993", "line2": "2 37907  99.0800  86.6990 0063647 220.2820 139.3633 14.23288046830933"}}, "geometry": {"type": "Point", "coordinates": [-128.4721715788281, -76.01101807313378]}}, {"type": "Feature", "properties": {"norad_id": 37908, "name": "FENGYUN 1C DEB", "group": "fengyun-1c-debris", "lat": 17.57706270581479, "lon": 7.21369329112866, "alt_km": 821.2832532205439, "timestamp": "2025-12-04T17:48:40.455455+00:00", "meta": {"OBJECT_NAME": "FENGYUN 1C DEB", "OBJECT_ID": "1999-025ENH", "EPOCH": "2025-12-03T19:59:46.826304", "MEAN_MOTION": 14.3655677, "ECCENTRICITY": 0.0074525, "INCLINATION": 99.153, "RA_OF_ASC_NODE": 9.1758, "ARG_OF_PERICENTER": 183.9556, "MEAN_ANOMALY": 176.1048, "EPHEMERIS_TYPE": 0, "CLASSIFICATION_TYPE": "U", "NORAD_CAT_ID": 37908, "ELEMENT_SET_NO": 999, "REV_AT_EPOCH": 63933, "BSTAR": 0.0010068, "MEAN_MOTION_DOT": 3.005e-05, "MEAN_MOTION_DDOT": 0}, "tle": {"line1": "1 37908U 99025ENH 25337.83318086  .00003005  00000+0  10068-2 0  9993", "line2": "2 37908  99.1530   9.1758 0074525 183.9556 176.1048 14.36556770639331"}}, "geometry": {"type": "Point", "coordinates": [7.21369329112866, 17.57706270581479]}}, {"type": "Feature", "properties": {"norad_id": 37912, "name": "FENGYUN 1C DEB", "group": "fengyun-1c-debris", "lat": 6.573850737594452, "lon": -53.9345969722556, "alt_km": 838.5174682007555, "timestamp": "2025-12-04T17:48:40.455465+00:00", "meta": {"OBJECT_NAME": "FENGYUN 1C DEB", "OBJECT_ID": "1999-025ENM", "EPOCH": "2025-12-03T09:27:10.814688", "MEAN_MOTION": 14.1135758, "ECCENTRICITY": 0.00926902, "INCLINATION": 99.2295, "RA_OF_ASC_NODE": 305.7534, "ARG_OF_PERICENTER": 85.348, "MEAN_ANOMALY": 275.8269, "EPHEMERIS_TYPE": 0, "CLASSIFICATION_TYPE": "U", "NORAD_CAT_ID": 37912, "ELEMENT_SET_NO": 999, "REV_AT_EPOCH": 77156, "BSTAR": 0.0030078294, "MEAN_MOTION_DOT": 5.622e-05, "MEAN_MOTION_DDOT": 0}, "tle": {"line1": "1 37912U 99025ENM 25337.39387517  .00005622  00000+0  30078-2 0  9994", "line2": "2 37912  99.2295 305.7534 0092690  85.3480 275.8269 14.11357580771561"}}, "geometry": {"type": "Point", "coordinates": [-53.9345969722556, 6.573850737594452]}}, {"type": "Feature", "properties": {"norad_id": 37918, "name": "FENGYUN 1C DEB", "group": "fengyun-1c-debris", "lat": 69.96322803873001, "lon": 133.68729817048697, "alt_km": 808.1572041632016, "timestamp": "2025-12-04T17:48:40.455476+00:00", "meta": {"OBJECT_NAME": "FENGYUN 1C DEB", "OBJECT_ID": "1999-025ENT", "EPOCH": "2025-12-03T07:49:27.657120", "MEAN_MOTION": 14.34315896, "ECCENTRICITY": 0.0055752, "INCLINATION": 99.0257, "RA_OF_ASC_NODE": 286.3711, "ARG_OF_PERICENTER": 311.2098, "MEAN_ANOMALY": 48.4287, "EPHEMERIS_TYPE": 0, "CLASSIFICATION_TYPE": "U", "NORAD_CAT_ID": 37918, "ELEMENT_SET_NO": 999, "REV_AT_EPOCH": 3407, "BSTAR": 0.0012431, "MEAN_MOTION_DOT": 3.507e-05, "MEAN_MOTION_DDOT": 0}, "tle": {"line1": "1 37918U 99025ENT 25337.32601455  .00003507  00000+0  12431-2 0  9996", "line2": "2 37918  99.0257 286.3711 0055752 311.2098  48.4287 14.34315896 34079"}}, "geometry": {"type": "Point", "coordinates": [133.68729817048697, 69.96322803873001]}}, {"type": "Feature", "properties": {"norad_id": 37919, "name": "FENGYUN 1C DEB", "group": "fengyun-1c-debris", "lat": 38.57368607883543, "lon": 103.72079019253692, "alt_km": 806.9944432565453, "timestamp": "2025-12-04T17:48:40.455487+00:00", "meta": {"OBJECT_NAME": "FENGYUN 1C DEB", "OBJECT_ID": "1999-025ENU", "EPOCH": "2025-12-01T13:25:03.337824", "MEAN_MOTION": 14.26713739, "ECCENTRICITY": 0.00500779, "INCLINATION": 99.0554, "RA_OF_ASC_NODE": 273.1218, "ARG_OF_PERICENTER": 48.0524, "MEAN_ANOMALY": 312.4907, "EPHEMERIS_TYPE": 0, "CLASSIFICATION_TYPE": "U", "NORAD_CAT_ID": 37919, "ELEMENT_SET_NO": 999, "REV_AT_EPOCH": 64749, "BSTAR": 0.00057424201, "MEAN_MOTION_DOT": 1.361e-05, "MEAN_MOTION_DDOT": 0}, "tle": {"line1": "1 37919U 99025ENU 25335.55906641  .00001361  00000+0  57424-3 0  9993", "line2": "2 37919  99.0554 273.1218 0050077  48.0524 312.4907 14.26713739647498"}}, "geometry": {"type": "Point", "coordinates": [103.72079019253692, 38.57368607883543]}}]}